[{"OBJECT_NAME":"STARK","OBJECT_ID":"2025-185C","EPOCH":"2026-03-09T19:23:11.035968","MEAN_MOTION":14.78690029,"ECCENTRICITY":0.00098781,"INCLINATION":97.9576,"RA_OF_ASC_NODE":153.2747,"ARG_OF_PERICENTER":62.8418,"MEAN_ANOMALY":297.3799,"EPHEMERIS_TYPE":0,"CLASSIFICATION_TYPE":"U","NORAD_CAT_ID":65299,"ELEMENT_SET_NO":999,"REV_AT_EPOCH":2915,"BSTAR":0.0003503119,"MEAN_MOTION_DOT":2.519e-5,"MEAN_MOTION_DDOT":0},{"OBJECT_NAME":"CZ-6A DEB","OBJECT_ID":"2024-140JC","EPOCH":"2026-03-09T14:01:12.922176","MEAN_MOTION":14.64694473,"ECCENTRICITY":0.014784,"INCLINATION":89.1286,"RA_OF_ASC_NODE":290.7968,"ARG_OF_PERICENTER":217.7727,"MEAN_ANOMALY":141.3041,"EPHEMERIS_TYPE":0,"CLASSIFICATION_TYPE":"U","NORAD_CAT_ID":60849,"ELEMENT_SET_NO":999,"REV_AT_EPOCH":8376,"BSTAR":0.00043726,"MEAN_MOTION_DOT":2.75e-5,"MEAN_MOTION_DDOT":0}]
